IRIDIUM 155             
1 43573U 18061E   22156.50698689  .00000142  00000+0  43697-4 0  9994
2 43573  86.3944 312.1297 0002455  97.9015 262.2460 14.34213921202286
IRIDIUM 154             
1 43574U 18061F   22156.48792397  .00000135  00000+0  40990-4 0  9998
2 43574  86.3951 312.2006 0001863  93.0845 267.0564 14.34213328202328
IRIDIUM 163             
1 43575U 18061G   22156.67823476  .00000146  00000+0  45007-4 0  9999
2 43575  86.3944 312.0813 0002260  81.9717 278.1735 14.34215256202326
IRIDIUM 156             
1 43576U 18061H   22156.72261782  .00000180  00000+0  57117-4 0  9995
2 43576  86.3945 312.0682 0002466  89.4330 270.7148 14.34214518202319
IRIDIUM 164             
1 43577U 18061J   22156.49429787  .00000139  00000+0  42619-4 0  9996
2 43577  86.3944 312.1815 0001970  88.1812 271.9610 14.34216012202338
IRIDIUM 159             
1 43578U 18061K   22156.67187527  .00000060  00000+0  14264-4 0  9998
2 43578  86.3943 312.0750 0001951  91.2741 268.8678 14.34214350202321
IRIDIUM 180             
1 43922U 19002A   22156.18300699  .00000153  00000+0  47556-4 0  9993
2 43922  86.3986 249.1210 0001763  84.3382 275.8015 14.34215960177903
IRIDIUM 176             
1 43923U 19002B   22155.95890258  .00000420  00000+0  62769-4 0  9993
2 43923  86.6122 249.2494 0002382  95.4776 264.6713 14.72241242182497
IRIDIUM 168             
1 43924U 19002C   22156.17667349  .00000157  00000+0  48880-4 0  9997
2 43924  86.3989 249.1594 0002020  94.7960 265.3466 14.34214767177848
IRIDIUM 173             
1 43925U 19002D   22156.72211891  .00000027  00000+0  26883-5 0  9992
2 43925  86.3985 248.8806 0002076  93.1791 266.9642 14.34215229177918
IRIDIUM 169             
1 43926U 19002E   22156.75649400  .00000195  00000+0  57070-4 0  9994
2 43926  86.4215 280.4735 0006058 133.5315 226.6388 14.38597235178537
IRIDIUM 172             
1 43927U 19002F   22156.71577678  .00000136  00000+0  41526-4 0  9992
2 43927  86.3988 248.8867 0002000  92.6071 267.5353 14.34215404177913
IRIDIUM 175             
1 43928U 19002G   22156.49648255  .00000438  00000+0  65546-4 0  9991
2 43928  86.6126 248.8550 0002244  97.3009 262.8463 14.72245695182567
IRIDIUM 171             
1 43929U 19002H   22156.48745595  .00000155  00000+0  48169-4 0  9994
2 43929  86.3997 249.1249 0002019  95.8191 264.3235 14.34214312177877
IRIDIUM 170             
1 43930U 19002J   22155.82916128  .00000419  00000+0  62549-4 0  9996
2 43930  86.6122 249.3092 0002359 101.5841 258.5641 14.72243675182489
IRIDIUM 167             
1 43931U 19002K   22156.55087416  .00000158  00000+0  49489-4 0  9995
2 43931  86.3988 248.9650 0001836  90.2851 269.8555 14.34216396177881
